{
  "norad_id": 55110,
  "name": "ASTROCAST-0401",
  "history": [
    {
      "epoch": "2026-03-28T18:54:40.893120Z",
      "apogee_km": 492.449287862285,
      "perigee_km": 479.48958035043506,
      "latitude_deg": -2.2883067143577893e-05,
      "longitude_deg": 69.93871721036251,
      "height_km": 492.9038372641007,
      "semi_major_axis_km": 6864.10643410636,
      "eccentricity": 0.00094402,
      "inclination_deg": 97.5539,
      "raan_deg": 179.8125,
      "arg_perigee_deg": 126.4933,
      "mean_anomaly_deg": 233.7176,
      "mean_motion_rev_day": 15.26605239
    },
    {
      "epoch": "2026-03-29T04:21:00.222048Z",
      "apogee_km": 492.4036969534109,
      "perigee_km": 479.4662940562839,
      "latitude_deg": 5.777171900279974e-06,
      "longitude_deg": -71.63175749670353,
      "height_km": 492.7444406375485,
      "semi_major_axis_km": 6864.071995504847,
      "eccentricity": 0.0009424,
      "inclination_deg": 97.5537,
      "raan_deg": 180.2102,
      "arg_perigee_deg": 125.2035,
      "mean_anomaly_deg": 235.0087,
      "mean_motion_rev_day": 15.26616728
    },
    {
      "epoch": "2026-03-30T05:31:10.839648Z",
      "apogee_km": 492.353302634986,
      "perigee_km": 479.3818440723544,
      "latitude_deg": -1.6832274099464894e-05,
      "longitude_deg": -89.14897323210893,
      "height_km": 492.3794193429974,
      "semi_major_axis_km": 6864.00457335367,
      "eccentricity": 0.00094489,
      "inclination_deg": 97.554,
      "raan_deg": 181.2709,
      "arg_perigee_deg": 121.9524,
      "mean_anomaly_deg": 238.2634,
      "mean_motion_rev_day": 15.26639221
    },
    {
      "epoch": "2026-03-30T13:23:06.360000Z",
      "apogee_km": 492.3369703974522,
      "perigee_km": 479.3536106153142,
      "latitude_deg": 6.385396958150112e-05,
      "longitude_deg": 152.87816028881127,
      "height_km": 492.2683583235133,
      "semi_major_axis_km": 6863.982290506383,
      "eccentricity": 0.00094576,
      "inclination_deg": 97.5543,
      "raan_deg": 181.6024,
      "arg_perigee_deg": 121.0038,
      "mean_anomaly_deg": 239.2131,
      "mean_motion_rev_day": 15.26646655
    }
  ]
}